{
  "type": "FeatureCollection",
  "features": [
    {
      "type": "Feature",
      "properties": {
        "norad_id": 67025,
        "name": "STARLINK-36178",
        "group": "last-30-days",
        "lat": -51.253560145165864,
        "lon": 130.45225998834255,
        "alt_km": 357.40929513656647,
        "timestamp": "2025-12-26T16:33:54.332808+00:00",
        "meta_object_name": "STARLINK-36178",
        "meta_object_id": "2025-293Y",
        "meta_epoch": "2025-12-26T06:00:02.999808",
        "meta_mean_motion": 15.73628313,
        "meta_eccentricity": 0.00036409,
        "meta_inclination": 69.9951,
        "meta_ra_of_asc_node": 284.6937,
        "meta_arg_of_pericenter": 268.3315,
        "meta_mean_anomaly": 356.097,
        "meta_ephemeris_type": 0,
        "meta_classification_type": "U",
        "meta_norad_cat_id": 67025,
        "meta_element_set_no": 999,
        "meta_rev_at_epoch": 239,
        "meta_bstar": -0.013026033,
        "meta_mean_motion_dot": -0.01628232,
        "meta_mean_motion_ddot": 0,
        "tle_line1": "1 67025U 25293Y   25360.25003472 -.01628232  00000+0 -13026-1 0  9998",
        "tle_line2": "2 67025  69.9951 284.6937 0003640 268.3315 356.0970 15.73628313  2394"
      },
      "geometry": {
        "type": "Point",
        "coordinates": [
          130.45225998834255,
          -51.253560145165864
        ]
      }
    },
    {
      "type": "Feature",
      "properties": {
        "norad_id": 67026,
        "name": "STARLINK-36176",
        "group": "last-30-days",
        "lat": -55.041659795582675,
        "lon": 134.8554285556672,
        "alt_km": 357.6435536596464,
        "timestamp": "2025-12-26T16:33:54.332817+00:00",
        "meta_object_name": "STARLINK-36176",
        "meta_object_id": "2025-293Z",
        "meta_epoch": "2025-12-26T06:00:02.999808",
        "meta_mean_motion": 15.73583886,
        "meta_eccentricity": 0.00035225,
        "meta_inclination": 69.9949,
        "meta_ra_of_asc_node": 284.6896,
        "meta_arg_of_pericenter": 271.1785,
        "meta_mean_anomaly": 357.9382,
        "meta_ephemeris_type": 0,
        "meta_classification_type": "U",
        "meta_norad_cat_id": 67026,
        "meta_element_set_no": 999,
        "meta_rev_at_epoch": 239,
        "meta_bstar": -0.012982709,
        "meta_mean_motion_dot": -0.01620537,
        "meta_mean_motion_ddot": 0,
        "tle_line1": "1 67026U 25293Z   25360.25003472 -.01620537  00000+0 -12983-1 0  9990",
        "tle_line2": "2 67026  69.9949 284.6896 0003522 271.1785 357.9382 15.73583886  2390"
      },
      "geometry": {
        "type": "Point",
        "coordinates": [
          134.8554285556672,
          -55.041659795582675
        ]
      }
    },
    {
      "type": "Feature",
      "properties": {
        "norad_id": 67027,
        "name": "STARLINK-36171",
        "group": "last-30-days",
        "lat": -53.336431104072666,
        "lon": 132.7530226928113,
        "alt_km": 357.50445886483067,
        "timestamp": "2025-12-26T16:33:54.332828+00:00",
        "meta_object_name": "STARLINK-36171",
        "meta_object_id": "2025-293AA",
        "meta_epoch": "2025-12-26T06:00:02.999808",
        "meta_mean_motion": 15.73597306,
        "meta_eccentricity": 0.00036239,
        "meta_inclination": 69.9943,
        "meta_ra_of_asc_node": 284.6904,
        "meta_arg_of_pericenter": 268.3219,
        "meta_mean_anomaly": 358.672,
        "meta_ephemeris_type": 0,
        "meta_classification_type": "U",
        "meta_norad_cat_id": 67027,
        "meta_element_set_no": 999,
        "meta_rev_at_epoch": 239,
        "meta_bstar": -0.013030845,
        "meta_mean_motion_dot": -0.01626812,
        "meta_mean_motion_ddot": 0,
        "tle_line1": "1 67027U 25293AA  25360.25003472 -.01626812  00000+0 -13031-1 0  9998",
        "tle_line2": "2 67027  69.9943 284.6904 0003623 268.3219 358.6720 15.73597306  2393"
      },
      "geometry": {
        "type": "Point",
        "coordinates": [
          132.7530226928113,
          -53.336431104072666
        ]
      }
    },
    {
      "type": "Feature",
      "properties": {
        "norad_id": 67028,
        "name": "STARLINK-36132",
        "group": "last-30-days",
        "lat": -58.657016898846315,
        "lon": 140.18189962793917,
        "alt_km": 357.56490657318227,
        "timestamp": "2025-12-26T16:33:54.332837+00:00",
        "meta_object_name": "STARLINK-36132",
        "meta_object_id": "2025-293AB",
        "meta_epoch": "2025-12-26T06:00:02.999808",
        "meta_mean_motion": 15.7354903,
        "meta_eccentricity": 0.0003813,
        "meta_inclination": 69.9951,
        "meta_ra_of_asc_node": 284.6824,
        "meta_arg_of_pericenter": 270.4065,
        "meta_mean_anomaly": 3.4245,
        "meta_ephemeris_type": 0,
        "meta_classification_type": "U",
        "meta_norad_cat_id": 67028,
        "meta_element_set_no": 999,
        "meta_rev_at_epoch": 239,
        "meta_bstar": -0.013101848,
        "meta_mean_motion_dot": -0.01631829,
        "meta_mean_motion_ddot": 0,
        "tle_line1": "1 67028U 25293AB  25360.25003472 -.01631829  00000+0 -13102-1 0  9992",
        "tle_line2": "2 67028  69.9951 284.6824 0003813 270.4065   3.4245 15.73549030  2396"
      },
      "geometry": {
        "type": "Point",
        "coordinates": [
          140.18189962793917,
          -58.657016898846315
        ]
      }
    },
    {
      "type": "Feature",
      "properties": {
        "norad_id": 67029,
        "name": "STARLINK-36190",
        "group": "last-30-days",
        "lat": -56.7626359746824,
        "lon": 137.22084796249368,
        "alt_km": 357.49944426492584,
        "timestamp": "2025-12-26T16:33:54.332846+00:00",
        "meta_object_name": "STARLINK-36190",
        "meta_object_id": "2025-293AC",
        "meta_epoch": "2025-12-26T06:00:02.999808",
        "meta_mean_motion": 15.73574505,
        "meta_eccentricity": 0.00037196,
        "meta_inclination": 69.9953,
        "meta_ra_of_asc_node": 284.6863,
        "meta_arg_of_pericenter": 267.893,
        "meta_mean_anomaly": 3.4198,
        "meta_ephemeris_type": 0,
        "meta_classification_type": "U",
        "meta_norad_cat_id": 67029,
        "meta_element_set_no": 999,
        "meta_rev_at_epoch": 239,
        "meta_bstar": -0.013051074,
        "meta_mean_motion_dot": -0.01627713,
        "meta_mean_motion_ddot": 0,
        "tle_line1": "1 67029U 25293AC  25360.25003472 -.01627713  00000+0 -13051-1 0  9993",
        "tle_line2": "2 67029  69.9953 284.6863 0003719 267.8930   3.4198 15.73574505  2390"
      },
      "geometry": {
        "type": "Point",
        "coordinates": [
          137.22084796249368,
          -56.7626359746824
        ]
      }
    },
    {
      "type": "Feature",
      "properties": {
        "norad_id": 67030,
        "name": "STARLINK-36138",
        "group": "last-30-days",
        "lat": 28.37116866176477,
        "lon": -118.36021000927123,
        "alt_km": 369.5306371136048,
        "timestamp": "2025-12-26T16:33:54.332858+00:00",
        "meta_object_name": "STARLINK-36138",
        "meta_object_id": "2025-294A",
        "meta_epoch": "2025-12-26T06:00:02.999808",
        "meta_mean_motion": 15.66892284,
        "meta_eccentricity": 0.00012021,
        "meta_inclination": 42.9994,
        "meta_ra_of_asc_node": 99.6948,
        "meta_arg_of_pericenter": 271.6168,
        "meta_mean_anomaly": 259.6637,
        "meta_ephemeris_type": 0,
        "meta_classification_type": "U",
        "meta_norad_cat_id": 67030,
        "meta_element_set_no": 999,
        "meta_rev_at_epoch": 228,
        "meta_bstar": -0.02009325,
        "meta_mean_motion_dot": -0.01936603,
        "meta_mean_motion_ddot": 0,
        "tle_line1": "1 67030U 25294A   25360.25003472 -.01936603  00000+0 -20093-1 0  9991",
        "tle_line2": "2 67030  42.9994  99.6948 0001202 271.6168 259.6637 15.66892284  2287"
      },
      "geometry": {
        "type": "Point",
        "coordinates": [
          -118.36021000927123,
          28.37116866176477
        ]
      }
    },
    {
      "type": "Feature",
      "properties": {
        "norad_id": 67031,
        "name": "STARLINK-36150",
        "group": "last-30-days",
        "lat": 27.33382444689465,
        "lon": -116.63594187886976,
        "alt_km": 369.7017395070625,
        "timestamp": "2025-12-26T16:33:54.332868+00:00",
        "meta_object_name": "STARLINK-36150",
        "meta_object_id": "2025-294B",
        "meta_epoch": "2025-12-26T06:00:02.999808",
        "meta_mean_motion": 15.66895672,
        "meta_eccentricity": 0.00012616,
        "meta_inclination": 42.9994,
        "meta_ra_of_asc_node": 99.6898,
        "meta_arg_of_pericenter": 272.6038,
        "meta_mean_anomaly": 260.515,
        "meta_ephemeris_type": 0,
        "meta_classification_type": "U",
        "meta_norad_cat_id": 67031,
        "meta_element_set_no": 999,
        "meta_rev_at_epoch": 247,
        "meta_bstar": -0.020053592,
        "meta_mean_motion_dot": -0.01933506,
        "meta_mean_motion_ddot": 0,
        "tle_line1": "1 67031U 25294B   25360.25003472 -.01933506  00000+0 -20054-1 0  9998",
        "tle_line2": "2 67031  42.9994  99.6898 0001261 272.6038 260.5150 15.66895672  2470"
      },
      "geometry": {
        "type": "Point",
        "coordinates": [
          -116.63594187886976,
          27.33382444689465
        ]
      }
    }
  ]
}